[{"OBJECT_NAME":"STARLINK-1728","OBJECT_ID":"2020-070BC","EPOCH":"2026-03-10T00:00:02.999808","MEAN_MOTION":15.52881613,"ECCENTRICITY":0.00023874,"INCLINATION":53.0405,"RA_OF_ASC_NODE":123.9048,"ARG_OF_PERICENTER":186.8833,"MEAN_ANOMALY":278.8832,"EPHEMERIS_TYPE":0,"CLASSIFICATION_TYPE":"U","NORAD_CAT_ID":46582,"ELEMENT_SET_NO":999,"REV_AT_EPOCH":586,"BSTAR":0.0027671167,"MEAN_MOTION_DOT":0.00178378,"MEAN_MOTION_DDOT":0},{"OBJECT_NAME":"OBJECT A","OBJECT_ID":"2024-125A","EPOCH":"2026-03-09T13:18:08.235936","MEAN_MOTION":15.55711721,"ECCENTRICITY":0.00113867,"INCLINATION":97.2433,"RA_OF_ASC_NODE":284.9987,"ARG_OF_PERICENTER":215.4363,"MEAN_ANOMALY":144.6137,"EPHEMERIS_TYPE":0,"CLASSIFICATION_TYPE":"U","NORAD_CAT_ID":60203,"ELEMENT_SET_NO":999,"REV_AT_EPOCH":9409,"BSTAR":0.0007001684,"MEAN_MOTION_DOT":0.00048428,"MEAN_MOTION_DDOT":0}]
